KUIPER-00165            
1 65778U 25217S   25323.32918778  .00048877  00000+0  12961-2 0  9994
2 65778  51.8715 177.5888 0004741 254.5571 105.4892 15.37829264  8443
KUIPER-00166            
1 65779U 25217T   25323.32102443  .00053679  00000+0  14203-2 0  9996
2 65779  51.8697 177.5397 0002908 219.6591 140.4183 15.37860389  8440
KUIPER-00167            
1 65780U 25217U   25323.66670139 -.00610586  00000+0 -29664-1 0  9991
2 65780  51.8732 177.2617 0009091 259.8482 219.5435 15.20316297  2605
KUIPER-00168            
1 65781U 25217V   25323.49103785  .00054307  00000+0  14038-2 0  9992
2 65781  51.8706 176.4368 0002795 170.9005 189.2034 15.38573339  8479
KUIPER-00169            
1 65782U 25217W   25323.58199380  .00043112  00000+0  11395-2 0  9994
2 65782  51.8680 176.2885 0002061 224.9157 135.1663 15.37993817  8482
KUIPER-00170            
1 65783U 25217X   25323.61801372  .00027597  00000+0  76836-3 0  9991
2 65783  51.8658 176.5029 0005721 275.3108  84.7225 15.36589079  8486
KUIPER-00171            
1 65784U 25217Y   25323.58865401  .00809781  00000+0  73949-2 0  9995
2 65784  51.8577 173.3577 0007535 274.4047  85.6090 15.65115996  8527
KUIPER-00172            
1 65785U 25217Z   25323.63226803  .00027877  00000+0  73381-3 0  9998
2 65785  51.8720 175.8793 0003089 229.2444 130.8275 15.38332296  8492
KUIPER-00173            
1 65786U 25217AA  25323.31584427  .00034943  00000+0  92528-3 0  9999
2 65786  51.8714 177.5042 0003457 227.7836 132.2858 15.38031524  8447
KUIPER-00174            
1 65787U 25217AB  25323.30135557  .00057962  00000+0  15072-2 0  9999
2 65787  51.8705 177.4130 0003606 186.8134 173.2805 15.38360125  8446
KUIPER-00176            
1 65788U 25217AC  25323.66670139 -.00014352  00000+0 -55986-3 0  9996
2 65788  51.8765 176.3005 0002930 238.5481   2.1337 15.24697771  5117
KUIPER-00101            
1 65947U 25228A   25323.58335648 -.00758162  00000+0 -35138-1 0  9998
2 65947  51.8851 132.8439 0004968 279.6985 333.2089 15.22091516  4356
KUIPER-00113            
1 65948U 25228B   25323.58335648 -.00800960  00000+0 -26921-1 0  9993
2 65948  51.8799 132.0857 0005932 257.3785 343.8658 15.32708644  5412
KUIPER-00117            
1 65949U 25228C   25323.58335648 -.00676346  00000+0 -27036-1 0  9991
2 65949  51.8794 132.3479 0008131 275.9470 187.0956 15.27092153  5797
KUIPER-00121            
1 65950U 25228D   25322.89975285  .00029519  00000+0  86189-3 0  9991
2 65950  51.8777 135.5229 0005588 280.6088  79.4268 15.35064521  6753
KUIPER-00122            
1 65951U 25228E   25323.58335648 -.00027412  00000+0 -14097-2 0  9992
2 65951  51.8830 133.6084 0006023 302.8880 304.4361 15.15703140  5483
KUIPER-00123            
1 65952U 25228F   25323.58335648 -.00033929  00000+0 -17926-2 0  9997
2 65952  51.8864 133.6236 0006360 285.1699 251.6282 15.14860685  3777
KUIPER-00124            
1 65953U 25228G   25322.83972157  .00022529  00000+0  67209-3 0  9999
2 65953  51.8770 135.8642 0004580 295.1325  64.9185 15.34544872  6744
KUIPER-00125            
1 65954U 25228H   25322.89364915  .00035714  00000+0  10295-2 0  9995
2 65954  51.8744 135.4717 0004779 272.9922  87.0517 15.35375883  6752
KUIPER-00126            
1 65955U 25228J   25323.58335648 -.00057851  00000+0 -25111-2 0  9995
2 65955  51.8868 132.9135 0005683 291.5453 245.1272 15.21902388  4593
KUIPER-00127            
1 65956U 25228K   25323.58335648 -.00527240  00000+0 -20557-1 0  9998
2 65956  51.8799 132.3254 0005029 285.8360 214.7416 15.27731175  5717
KUIPER-00128            
1 65957U 25228L   25322.89317809  .00044234  00000+0  12841-2 0  9994
2 65957  51.8751 135.4772 0005019 273.4944  86.5468 15.35053773  6752
KUIPER-00129            
1 65958U 25228M   25322.89085317  .00044658  00000+0  12806-2 0  9992
2 65958  51.8754 135.4611 0004756 258.4678 101.5774 15.35436149  6752
KUIPER-00130            
1 65959U 25228N   25322.89694907  .00034785  00000+0  10167-2 0  9992
2 65959  51.8765 135.4955 0006327 281.0003  79.0271 15.34943653  6759
KUIPER-00134            
1 65960U 25228P   25322.96410808  .00023880  00000+0  70234-3 0  9994
2 65960  51.8765 135.1933 0005649 280.3861  79.6488 15.34952786  6768
KUIPER-00135            
1 65961U 25228Q   25322.89858577  .00036988  00000+0  10836-2 0  9990
2 65961  51.8791 135.5154 0005171 271.9575  88.0819 15.34848921  6751
KUIPER-00136            
1 65962U 25228R   25322.75920775  .00049911  00000+0  14288-2 0  9991
2 65962  51.8784 136.0812 0002426 240.9758 119.0985 15.35445339  6734
KUIPER-00137            
1 65963U 25228S   25322.89822058  .00031173  00000+0  91661-3 0  9994
2 65963  51.8813 135.5128 0006854 287.1320  72.8915 15.34807718  6752
KUIPER-00138            
1 65964U 25228T   25322.90231441  .00029874  00000+0  87920-3 0  9995
2 65964  51.8767 135.5314 0006755 287.1881  72.8365 15.34802017  6756
KUIPER-00140            
1 65965U 25228U   25322.83900770  .00031486  00000+0  93054-3 0  9993
2 65965  51.8757 135.8606 0005669 285.8876  74.1485 15.34649136  6743
KUIPER-00141            
1 65966U 25228V   25322.89261143  .00042071  00000+0  12101-2 0  9999
2 65966  51.8749 135.4653 0004568 272.0214  88.0248 15.35368188  6752
KUIPER-00146            
1 65967U 25228W   25322.89556174  .00048831  00000+0  14234-2 0  9990
2 65967  51.8791 135.4961 0006785 278.2812  81.7404 15.34870946  6750
KUIPER-00149            
1 65968U 25228X   25321.91306725  .00039138  00000+0  11240-2 0  9992
2 65968  51.8770 140.1535 0006249 262.5584  97.4692 15.35440845  6604
KUIPER-00154            
1 65969U 25228Y   25322.88942886  .00032762  00000+0  96167-3 0  9992
2 65969  51.8810 135.4489 0002370 304.7460  55.3302 15.34854628  6752
KUIPER-00157            
1 65970U 25228Z   25322.89935644  .00044680  00000+0  13033-2 0  9991
2 65970  51.8784 135.5200 0006401 286.5201  73.5081 15.34890053  6753
